ONEWEB-0113             
1 48050U 21025J   22255.63836573  .00000135  00000+0  33536-3 0  9995
2 48050  87.9018 233.1133 0002085  81.7465 278.3901 13.13467625 73271
ONEWEB-0112             
1 48051U 21025K   22255.70185136  .00000299  00000+0  78321-3 0  9998
2 48051  87.9071 233.0200 0001996  84.6820 275.4537 13.13471227 73290
ONEWEB-0156             
1 48052U 21025L   22255.63624373  .00000202  00000+0  51722-3 0  9992
2 48052  87.9025 233.0959 0001992  85.7428 274.3928 13.13467815 73260
ONEWEB-0161             
1 48053U 21025M   22255.68492430  .00000113  00000+0  27400-3 0  9992
2 48053  87.9063 233.0602 0001779  82.1631 277.9700 13.13472285 73206
ONEWEB-0158             
1 48054U 21025N   22255.49660348 -.00000592  00000+0 -16568-2 0  9992
2 48054  87.9015 233.1309 0002716  75.5926 284.5504 13.13473421 73304
ONEWEB-0157             
1 48055U 21025P   22255.67222956 -.00000185  00000+0 -54077-3 0  9998
2 48055  87.8991 233.0322 0001714  92.2475 267.8851 13.13471352 73268
ONEWEB-0162             
1 48056U 21025Q   22255.63413293  .00000201  00000+0  51575-3 0  9998
2 48056  87.9069 233.0479 0002017  85.5934 274.5425 13.13467041 73230
ONEWEB-0155             
1 48057U 21025R   22255.65530068 -.00000294  00000+0 -83918-3 0  9991
2 48057  87.8973 232.9884 0001934  82.5744 277.5605 13.13471434 73374
ONEWEB-0149             
1 48058U 21025S   22255.67646359 -.00000134  00000+0 -40060-3 0  9999
2 48058  87.9010 233.0545 0002158  97.3955 262.7419 13.13471757 73187
ONEWEB-0148             
1 48059U 21025T   22255.64049588  .00000052  00000+0  10793-3 0  9995
2 48059  87.9043 233.0595 0001956 111.8580 248.2757 13.13468815 73309
ONEWEB-0160             
1 48060U 21025U   22255.65740080 -.00000291  00000+0 -83082-3 0  9991
2 48060  87.9047 233.0536 0003105  72.1625 287.9842 13.13473694 73257
ONEWEB-0163             
1 48061U 21025V   22255.49024471 -.00000005  00000+0 -47800-4 0  9995
2 48061  87.9030 233.1774 0001435  91.9882 268.1412 13.13467716 73356
ONEWEB-0159             
1 48062U 21025W   22255.47967705  .00000247  00000+0  64021-3 0  9999
2 48062  87.8968 233.1142 0001595  97.7561 262.3749 13.13465815 73278
ONEWEB-0164             
1 48063U 21025X   22255.68915515  .00000191  00000+0  48867-3 0  9993
2 48063  87.9037 233.1616 0001925  74.0279 286.1063 13.13471817 73287
ONEWEB-0167             
1 48064U 21025Y   22255.49234752 -.00000128  00000+0 -38623-3 0  9991
2 48064  87.8992 233.0686 0001690  90.7047 269.4276 13.13467984 73246
ONEWEB-0166             
1 48065U 21025Z   22255.66588006 -.00000286  00000+0 -81765-3 0  9995
2 48065  87.9065 233.0247 0001849  93.1324 267.0017 13.13471175 73348
ONEWEB-0151             
1 48066U 21025AA  22255.66800034 -.00000291  00000+0 -83072-3 0  9993
2 48066  87.9005 233.0609 0001919  74.4982 285.6359 13.13470546 73284
ONEWEB-0170             
1 48067U 21025AB  22255.67434347 -.00000206  00000+0 -59828-3 0  9993
2 48067  87.9034 233.1518 0002444  62.4435 297.6942 13.13467047 73240
ONEWEB-0168             
1 48068U 21025AC  22255.65952964 -.00000345  00000+0 -97911-3 0  9991
2 48068  87.9017 233.1025 0001914  87.4618 272.6730 13.13472456 73255
ONEWEB-0173             
1 48069U 21025AD  22255.50082880 -.00000236  00000+0 -68018-3 0  9992
2 48069  87.9018 233.1445 0001361  76.3429 283.7852 13.13470566 73478
ONEWEB-0171             
1 48070U 21025AE  22255.68703424  .00000131  00000+0  32461-3 0  9992
2 48070  87.9072 233.0500 0001858  92.0930 268.0412 13.13473517 73314
ONEWEB-0172             
1 48071U 21025AF  22255.44052515 -.00000211  00000+0 -61286-3 0  9993
2 48071  87.8993 233.1720 0001718  75.8332 284.2988 13.13466622 74173
ONEWEB-0174             
1 48072U 21025AG  22255.49871968 -.00000244  00000+0 -70239-3 0  9994
2 48072  87.9048 233.1158 0002231 105.8488 254.2887 13.13472539 73503
ONEWEB-0175             
1 48073U 21025AH  22255.67855889 -.00000072  00000+0 -23173-3 0  9993
2 48073  87.9034 233.0160 0002081  67.5200 292.6150 13.13473764 73184
ONEWEB-0177             
1 48074U 21025AJ  22255.69124556  .00000285  00000+0  74452-3 0  9996
2 48074  87.9028 233.1258 0001222  95.0973 265.0296 13.13476983 73378
ONEWEB-0178             
1 48075U 21025AK  22255.86162262  .00000184  00000+0  46964-3 0  9997
2 48075  87.9076 233.0338 0001688  85.3972 274.7350 13.13463675 73447
ONEWEB-0108             
1 48076U 21025AL  22255.44158157 -.00000153  00000+0 -45379-3 0  9997
2 48076  87.9000 233.1046 0002182  87.8323 272.3056 13.13472023 73319
ONEWEB-0169             
1 48077U 21025AM  22255.69974059  .00000208  00000+0  53329-3 0  9995
2 48077  87.9032 233.1412 0002247  93.6197 266.5189 13.13472001 72001
ONEWEB-0176             
1 48210U 21031A   22255.78501737  .00000015  00000+0  62417-5 0  9996
2 48210  87.9098 202.7599 0001761  79.2105 280.9223 13.14504560 69179
ONEWEB-0184             
1 48211U 21031B   22255.37904540  .00000317  00000+0  81986-3 0  9996
2 48211  87.9111 202.7489 0002294  42.3625 317.7682 13.14503791 67805
ONEWEB-0179             
1 48212U 21031C   22255.80405014 -.00000224  00000+0 -63865-3 0  9992
2 48212  87.9111 202.6661 0001622  82.7151 277.4163 13.14504364 67907
ONEWEB-0180             
1 48213U 21031D   22255.38118090  .00000302  00000+0  77991-3 0  9991
2 48213  87.9112 202.7434 0001805  83.3961 276.7375 13.14505136 67733
ONEWEB-0218             
1 48214U 21031E   22255.85903226  .00000217  00000+0  55039-3 0  9991
2 48214  87.9206 202.6128 0001720  32.5803 327.5433 13.14502527 67959
ONEWEB-0209             
1 48215U 21031F   22255.62009148  .00000115  00000+0  27677-3 0  9991
2 48215  87.9115 202.7360 0001813  79.0996 281.0337 13.14499416 67926
ONEWEB-0198             
1 48216U 21031G   22255.37694820  .00000321  00000+0  83006-3 0  9998
2 48216  87.9112 202.7972 0001401  61.1803 298.9467 13.14502455 68004
ONEWEB-0189             
1 48217U 21031H   22255.61799166  .00000339  00000+0  88029-3 0  9994
2 48217  87.9206 202.6875 0001373  65.4391 294.6881 13.14503094 67773
ONEWEB-0196             
1 48218U 21031J   22255.36847372  .00000068  00000+0  14908-3 0  9994
2 48218  87.9111 202.7688 0001903  73.0882 287.0456 13.14503668 67749
ONEWEB-0183             
1 48219U 21031K   22255.34098156 -.00000163  00000+0 -47493-3 0  9994
2 48219  87.9114 202.7938 0001900  84.3780 275.7567 13.14500031 67838
ONEWEB-0185             
1 48220U 21031L   22255.36955507  .00000249  00000+0  63730-3 0  9995
2 48220  87.9109 202.7662 0001826  83.0414 277.0923 13.14506490 67763
ONEWEB-0187             
1 48221U 21031M   22255.42132901 -.00000216  00000+0 -61801-3 0  9991
2 48221  87.9114 202.7793 0001808  83.6712 276.4624 13.14504925 67786
ONEWEB-0192             
1 48222U 21031N   22255.62222378  .00000330  00000+0  85521-3 0  9992
2 48222  87.9115 202.6864 0001833  70.9065 289.2263 13.14502618 67726
ONEWEB-0219             
1 48223U 21031P   22255.37483879  .00005395  00000+0  14515-1 0  9999
2 48223  87.9201 202.7264 0001743  87.4386 272.6943 13.14480663 67891
ONEWEB-0202             
1 48224U 21031Q   22255.35366227 -.00000389  00000+0 -10831-2 0  9993
2 48224  87.9110 202.7960 0001376  37.5641 322.5585 13.14500987 67873
ONEWEB-0204             
1 48225U 21031R   22255.41393926 -.00000085  00000+0 -26501-3 0  9992
2 48225  87.9111 202.8102 0002627  84.4368 275.7061 13.14499133 67778
ONEWEB-0205             
1 48226U 21031S   22255.36424908  .00000057  00000+0  11840-3 0  9999
2 48226  87.9111 202.7720 0001557  73.6794 286.4507 13.14504694 67782
ONEWEB-0206             
1 48227U 21031T   22255.86959205 -.00000072  00000+0 -22899-3 0  9993
2 48227  87.9196 202.6147 0001811  88.2471 271.8866 13.14504755 67802
ONEWEB-0182             
1 48228U 21031U   22255.78714522  .00000170  00000+0  42417-3 0  9991
2 48228  87.9113 202.7486 0001712  84.0846 276.0478 13.14502559 68008
ONEWEB-0186             
1 48229U 21031V   22255.41923581 -.00000157  00000+0 -45702-3 0  9996
2 48229  87.9113 202.7331 0001681  77.8884 282.2434 13.14500385 67909
ONEWEB-0181             
1 48230U 21031W   22255.85267835  .00000188  00000+0  47375-3 0  9999
2 48230  87.9116 202.7151 0001883  75.3729 284.7609 13.14504596 67818
ONEWEB-0188             
1 48231U 21031X   22255.36003110 -.00000039  00000+0 -14023-3 0  9991
2 48231  87.9111 202.8146 0001800  81.8350 278.2984 13.14504489 67657
ONEWEB-0220             
1 48232U 21031Y   22255.39808299  .00000123  00000+0  29641-3 0  9990
2 48232  87.9198 202.7192 0001489  85.2101 274.9199 13.14504219 67920
ONEWEB-0165             
1 48233U 21031Z   22255.35157264 -.00000264  00000+0 -74645-3 0  9998
2 48233  87.9114 202.7981 0001780  61.8346 298.2964 13.14503561 67872
ONEWEB-0199             
1 48234U 21031AA  22255.41078040 -.00000128  00000+0 -37965-3 0  9993
2 48234  87.9112 202.7630 0001768  78.5422 281.5907 13.14501085 67789
ONEWEB-0203             
1 48235U 21031AB  22255.78078813  .00000093  00000+0  21676-3 0  9993
2 48235  87.9114 202.6845 0002202  65.1644 294.9714 13.14503754 67847
ONEWEB-0197             
1 48236U 21031AC  22255.61585493  .00000139  00000+0  33999-3 0  9995
2 48236  87.9113 202.7270 0001845  76.4532 283.6803 13.14504544 67733
ONEWEB-0194             
1 48237U 21031AD  22255.35578844 -.00000110  00000+0 -33039-3 0  9995
2 48237  87.9111 202.7685 0002354  70.5800 289.5584 13.14505178 67871
ONEWEB-0193             
1 48238U 21031AE  22255.37271076  .00000248  00000+0  63429-3 0  9991
2 48238  87.9110 202.7762 0001889  69.9303 290.2030 13.14504872 67829
ONEWEB-0191             
1 48239U 21031AF  22255.61163862  .00000135  00000+0  32958-3 0  9990
2 48239  87.9111 202.7111 0002061  73.0909 287.0446 13.14504448 67712
ONEWEB-0195             
1 48240U 21031AG  22255.36109683 -.00000087  00000+0 -26846-3 0  9992
2 48240  87.9113 202.7522 0001482  65.9143 294.2141 13.14506402 67666
